{"type":"FeatureCollection","features":[{"type":"Feature","id":1,"geometry":{"type":"LineString","coordinates":[[20.999294450071726,-19.061005244843006],[20.999043628766287,-18.945987324536294],[20.999169639044471,-18.873652040133738],[20.999295536134916,-18.802033576392166],[20.999421326325809,-18.730414564041173],[20.999296115548244,-18.662142842422583],[20.999296684181839,-18.523684835468135],[20.999171678220147,-18.453976797811094],[20.99954772737113,-18.385703080069785],[20.999422713324627,-18.317428871324786],[21.115850949814405,-18.317632855268144],[21.192593045373066,-18.317451280285265],[21.250681837856025,-18.317622968797203],[21.375746645472272,-18.31753731388347],[21.452988755894502,-18.317728330934784],[21.511044077149979,-18.306820764383701],[21.645016594394921,-18.281426347010932],[21.784746775418533,-18.255271555874803]]},"properties":{"OBJECTID":1,"ID":0,"Plan_Len":165942.1336,"Sph_Len":166006.14749999999,"Start_X":499925.76799999998,"Start_Y":7892422.4299999997,"Mid_X":500637.51040000003,"Mid_Y":7974693.2810000004,"Sph_Mid_X":500636.3162,"Sph_Mid_Y":7974693.2829999998,"End_X":582957.09519999998,"End_Y":7981393.8629999999,"Prj_Az":43.022079506786,"End_Az":43.024050003889002,"Start_Az":42.772757636282002,"Parts":1,"Vertices":18,"Shape_Length":175524.04897153931}},{"type":"Feature","id":2,"geometry":{"type":"LineString","coordinates":[[21.785949197375786,-18.254714983530363],[21.838209281917525,-18.244928450719907],[22.004445799603062,-18.213283238315771],[22.140509706220509,-18.187296882311387],[22.267786281050647,-18.162947806440442],[22.388030000318615,-18.13976257785632],[22.51048262027637,-18.116008555657352],[22.624165150710329,-18.094165339246729],[22.741055754568418,-18.0715109057635],[22.863394489707712,-18.047540164817885],[22.972728859756188,-18.026017869003208],[23.017973661579372,-18.017065757380571],[23.02110789977537,-18.072726035489072],[23.025166235802409,-18.132319973362261],[23.028635406360468,-18.183792751648092],[23.032188786789941,-18.242195738995136],[23.036044322751717,-18.304658229877774],[23.040104755446649,-18.362815553810012],[23.043618437527023,-18.416675862367907],[23.043872093915496,-18.427548303647413],[23.039768240252997,-18.45113541077512],[23.024656873070011,-18.550488721486118],[23.018479556814778,-18.589872769397402],[23.003363107862246,-18.690181283682321],[22.997553938278454,-18.72944151917784]]},"properties":{"OBJECTID":2,"ID":0,"Plan_Len":212291.6427,"Sph_Len":212293.0913,"Start_X":583084.4767,"Start_Y":7981454.9000000004,"Mid_X":687296.25159999996,"Mid_Y":8001625,"Sph_Mid_X":687279.99280000001,"Sph_Mid_Y":8001621.8200000003,"End_X":710613.89939999999,"End_Y":7927929.585,"Prj_Az":112.768257776338,"End_Az":112.517287922227,"Start_Az":112.132982691046,"Parts":1,"Vertices":25,"Shape_Length":223968.38053940379}},{"type":"Feature","id":3,"geometry":{"type":"LineString","coordinates":[[20.999375480805309,-18.575383274228965],[21.161843851538208,-18.595231975834327],[21.429123741052369,-18.627179118299143],[21.57789456889201,-18.64490019863808],[21.699738206545611,-18.600364633477934],[21.793139369503749,-18.565831905417259],[21.802406566942835,-18.562749894888558],[21.813989744253586,-18.558827605058095],[21.849835788567677,-18.534880419502148],[21.898814366902425,-18.501321507113708],[21.917881785239242,-18.488505653576773],[21.920624801739113,-18.486417718174717],[21.922350891201344,-18.483919776201631],[21.933910796756326,-18.47722435896198],[21.940546469402133,-18.471382616625409],[21.946254490481543,-18.455033918758751],[21.936937384441915,-18.447334935733057],[21.943537127171282,-18.4351311342744]]},"properties":{"OBJECTID":3,"ID":0,"Plan_Len":109439.53079999999,"Sph_Len":109478.2503,"Start_X":499934.10450000002,"Start_Y":7946154.3820000002,"Mid_X":554213.43350000004,"Mid_Y":7939225.7589999996,"Sph_Mid_X":554211.57539999997,"Sph_Mid_Y":7939226.0020000003,"End_X":599641.09129999997,"End_Y":7961412.6880000001,"Prj_Az":81.299442231110007,"End_Az":81.299999707116996,"Start_Az":81.000324305685993,"Parts":1,"Vertices":18,"Shape_Length":115550.30384704041}},{"type":"Feature","id":4,"geometry":{"type":"LineString","coordinates":[[21.547913893664155,-18.299928232616256],[21.54122180592023,-18.194239494358964],[21.628644364455575,-18.197307124631791],[21.6530299377335,-18.188596597400746],[21.679767502546166,-18.178599975015317],[21.681604870814212,-18.176240077261912],[21.694034656381323,-18.154622879534458]]},"properties":{"OBJECTID":4,"ID":0,"Plan_Len":29810.586759999998,"Sph_Len":29821.054069999998,"Start_X":557905.46429999999,"Start_Y":7976544.1100000003,"Mid_X":560420.39569999999,"Mid_Y":7988112.7300000004,"Sph_Mid_X":560420.28200000001,"Sph_Mid_Y":7988112.7350000003,"End_X":573409.48360000004,"End_Y":7992568.9079999998,"Prj_Az":44.053700156241,"End_Az":43.882371315851003,"Start_Az":43.836666564585997,"Parts":1,"Vertices":7,"Shape_Length":31477.635062228303}},{"type":"Feature","id":5,"geometry":{"type":"LineString","coordinates":[[22.410202131922993,-19.325797669579725],[22.391840147104013,-19.37113824092161],[22.375990417758086,-19.410394947964775],[22.369248220190968,-19.427848480663872],[22.370597855362028,-19.450201751078389],[22.375400725876371,-19.507806078509176],[22.378494283864672,-19.549437909170468],[22.382276293618784,-19.593583919822034],[22.385915244867235,-19.640092916531977],[22.38953546085212,-19.684081900561235],[22.391111199285248,-19.702889022757461],[22.407464239413532,-19.728431150658967],[22.434373439937662,-19.771288758697779],[22.4354765091228,-19.773720854250772],[22.438873232349842,-19.799992692919378],[22.454302294122925,-19.813410936457291],[22.499844942260044,-19.85248188757695],[22.544230807347908,-19.890132564254479],[22.554557743734406,-19.899254757347787],[22.595037461777395,-19.91842262297774],[22.631179670759209,-19.935888393799594],[22.640300054734798,-19.940292188911059],[22.720653864622513,-19.979684334049892],[22.766485911316586,-20.004820417854265],[22.775183958649556,-20.008040038107943],[22.804803112281153,-20.019864639752324],[22.81743788890455,-20.024852592843143]]},"properties":{"OBJECTID":5,"ID":0,"Plan_Len":101875.15730000001,"Sph_Len":101884.6694,"Start_X":648144.13179999997,"Start_Y":7862519.693,"Mid_X":650017.05870000005,"Mid_Y":7813626.0499999998,"Sph_Mid_X":650015.91359999997,"Sph_Mid_Y":7813628.0209999997,"End_X":690108.22089999996,"End_Y":7784735.7889999999,"Prj_Az":151.653324965509,"End_Az":151.17761512405701,"Start_Az":151.04049993187701,"Parts":1,"Vertices":27,"Shape_Length":108606.97959226735}},{"type":"Feature","id":6,"geometry":{"type":"LineString","coordinates":[[23.061950837230423,-20.022330120427775],[23.085290534362379,-20.011193712038715],[23.121889054270877,-19.995488057339497],[23.128180539212188,-19.992736269119817],[23.141687908759817,-19.969431305748966],[23.160811130442127,-19.937005136529592],[23.187899349032701,-19.891255703653332],[23.190749556105494,-19.886733951153762],[23.22547289406236,-19.858753772597321],[23.242389999832252,-19.86672769796963],[23.253037497332951,-19.872496680087913],[23.267810037957048,-19.881597014081716],[23.271708529559099,-19.886584770634737],[23.274253701100758,-19.89001551534243],[23.284103562002798,-19.880601582399798],[23.288964576872203,-19.883057852803919],[23.295543957489031,-19.88926987092454],[23.300432684486626,-19.893614449370773],[23.306146781770636,-19.897475916365192],[23.319882364722954,-19.903593969352897],[23.326844075511232,-19.907359703443213],[23.346838621696602,-19.897652070175504],[23.350813236535821,-19.896340274839087],[23.360105685617551,-19.883309347763213],[23.373065872461016,-19.882035132371712],[23.376203320337474,-19.880419155720034],[23.380615146123784,-19.875008212555187],[23.387793338319124,-19.865467425468523],[23.415444239145778,-19.82912665371834],[23.427109060739433,-19.814093243130674],[23.449355313236218,-19.784275633087461],[23.466800253795689,-19.761684138842188],[23.476001374755743,-19.749200749588152],[23.508427746582235,-19.7124680493047],[23.538305495539756,-19.673091012293131],[23.544325468279716,-19.664978430892578],[23.57158927337235,-19.629411867251743],[23.592356411126271,-19.629585966095977],[23.646761566565299,-19.629816698978807],[23.674834592930491,-19.629873580249473],[23.741690938993205,-19.629889898275479],[23.790768720979681,-19.629685902524376],[23.826640061852203,-19.629440467452966],[23.882521843700736,-19.629104316195409],[23.882214286598618,-19.667663809099402],[23.882034650491239,-19.708660292095693],[23.882228285943985,-19.751853733010787],[23.882186609504711,-19.791116712368119],[23.882335612162571,-19.813223885704442],[23.952707863636004,-19.806408573453712],[24.035930358941908,-19.798325279733785],[24.113492208519862,-19.79046010783167],[24.195204418440849,-19.782959807023449],[24.271427531208762,-19.775838099796704],[24.354100324934439,-19.767777100693262],[24.384853694138741,-19.764444523500007],[24.41727041536415,-19.741805577884694],[24.471366161374917,-19.704350510151805],[24.539034491927989,-19.658593535903854],[24.582496022927838,-19.630757910630646],[24.612122717017943,-19.612078119161833]]},"properties":{"OBJECTID":6,"ID":0,"Plan_Len":215110.31700000001,"Sph_Len":214962.1704,"Start_X":715696.29260000004,"Start_Y":7784718.3590000002,"Mid_X":797388.11210000003,"Mid_Y":7827056.2750000004,"Sph_Mid_X":797357.37250000006,"Sph_Mid_Y":7827056.5949999997,"End_X":878959.69449999998,"End_Y":7827431.9620000003,"Prj_Az":75.338668611290004,"End_Az":74.640572170373005,"Start_Az":74.115000319795001,"Parts":1,"Vertices":61,"Shape_Length":228797.77472399984}},{"type":"Feature","id":7,"geometry":{"type":"LineString","coordinates":[[20.999299653113848,-19.060689835874197],[20.999299214735998,-19.164712592243756],[20.99943184200453,-19.229221259392666],[20.999298657780532,-19.296001769077343],[20.999431362304179,-19.36808377620093],[20.999298063994118,-19.434863269423762],[20.999430888892014,-19.504166988999614],[20.999297445054882,-19.578267099601216],[20.999430403801782,-19.642267899004537],[20.999563449685226,-19.712832356545469],[20.999429894456991,-19.785920894871797],[20.999029376994304,-19.860018681966984],[20.99969632219387,-19.93512569583541],[20.999429005124863,-20.034089259503567]]},"properties":{"OBJECTID":7,"ID":0,"Plan_Len":107711.5137,"Sph_Len":107754.6156,"Start_X":499926.31530000002,"Start_Y":7892457.3300000001,"Mid_X":499932.13319999998,"Mid_Y":7838601.6449999996,"Sph_Mid_X":499932.13319999998,"Sph_Mid_Y":7838601.6449999996,"End_X":499940.28379999998,"End_Y":7784746.3669999996,"Prj_Az":179.992569604566,"End_Az":179.99280358451901,"Start_Az":179.99276030355301,"Parts":1,"Vertices":14,"Shape_Length":114987.82335178053}},{"type":"Feature","id":8,"geometry":{"type":"LineString","coordinates":[[22.807046038458967,-18.925636711147195],[22.867067295764308,-18.870850716276944],[22.90826826755562,-18.832687634009517],[22.919336456883649,-18.822463719585183]]},"properties":{"OBJECTID":8,"ID":0,"Plan_Len":16445.87401,"Sph_Len":16444.61692,"Start_X":690300.80980000005,"Start_Y":7906427.0939999996,"Mid_X":696294.50509999995,"Mid_Y":7912056.6859999998,"Sph_Mid_X":696294.42319999996,"Sph_Mid_Y":7912056.5990000004,"End_X":702253.38560000004,"End_Y":7917723.0990000004,"Prj_Az":46.617679324874999,"End_Az":46.032957900768999,"Start_Az":45.996633172335997,"Parts":1,"Vertices":4,"Shape_Length":17423.617133936888}},{"type":"Feature","id":9,"geometry":{"type":"LineString","coordinates":[[22.805217700056147,-18.926867785771705],[22.776704951054306,-18.936579715578407],[22.748703436873953,-18.946410954799138],[22.723627140889224,-18.955145534507128]]},"properties":{"OBJECTID":9,"ID":0,"Plan_Len":9146.4713784462911,"Sph_Len":9146.2262808051455,"Start_X":690106.82290000003,"Start_Y":7906292.7949999999,"Mid_X":685790.23620000004,"Mid_Y":7904782.4539999999,"Sph_Mid_X":685790.19420000003,"Sph_Mid_Y":7904782.4369999999,"End_X":681481.86820000003,"End_Y":7903248.6940000001,"Prj_Az":250.559965171822,"End_Az":249.973842740724,"Start_Az":250.000326588306,"Parts":1,"Vertices":4,"Shape_Length":9673.2456894794013}},{"type":"Feature","id":10,"geometry":{"type":"LineString","coordinates":[[22.919056421466873,-18.822736208992854],[22.997511345557577,-18.729170495308942]]},"properties":{"OBJECTID":10,"ID":0,"Plan_Len":13256.20541,"Sph_Len":13254.524530000001,"Start_X":702223.54139999999,"Start_Y":7917693.2549999999,"Mid_X":706416.64229999995,"Mid_Y":7922826.4460000005,"Sph_Mid_X":706416.66460000002,"Sph_Mid_Y":7922826.3360000001,"End_X":710609.74309999996,"End_Y":7927959.6370000001,"Prj_Az":39.244027670739001,"End_Az":38.626140141491,"Start_Az":38.600887971185998,"Parts":1,"Vertices":2,"Shape_Length":14046.342860526793}},{"type":"Feature","id":11,"geometry":{"type":"LineString","coordinates":[[22.538747144103947,-18.943020844302207],[22.553411761129823,-18.93534852219004],[22.572390465442485,-18.934649335604146],[22.586782039537759,-18.928325033302404],[22.660728269810111,-18.927677958362491],[22.691445257245398,-18.939264242822535],[22.701666897605882,-18.94132777101262],[22.720777046105834,-18.953554260546294],[22.723343790689057,-18.955148169973985]]},"properties":{"OBJECTID":11,"ID":0,"Plan_Len":20551.2844,"Sph_Len":20551.99152,"Start_X":662023.49269999994,"Start_Y":7904770.7450000001,"Mid_X":671939.94460000005,"Mid_Y":7906352.4840000002,"Sph_Mid_X":671939.72679999995,"Sph_Mid_Y":7906352.4840000002,"End_X":681452.02399999998,"End_Y":7903248.6940000001,"Prj_Az":94.479460452344,"End_Az":93.979649168251996,"Start_Az":93.919705458864996,"Parts":1,"Vertices":9,"Shape_Length":21733.249417878807}},{"type":"Feature","id":12,"geometry":{"type":"LineString","coordinates":[[23.882314999420039,-19.813335044887253],[23.882646543336918,-19.854674205859958],[23.883050921758699,-19.888488930749098],[23.883322919948611,-19.922567360727641],[23.883758161788602,-19.957951383150196],[23.883784375526901,-19.993603609351798],[23.884028730758935,-20.010804447090138]]},"properties":{"OBJECTID":12,"ID":0,"Plan_Len":21877.290779999999,"Sph_Len":21861.409960000001,"Start_X":801957.79570000002,"Start_Y":7806598.875,"Mid_X":801867.50910000002,"Mid_Y":7795660.6189999999,"Sph_Mid_X":801867.52040000004,"Sph_Mid_Y":7795660.6150000002,"End_X":801762.14870000002,"End_Y":7784722.6399999997,"Prj_Az":180.51240304872599,"End_Az":179.53000415182299,"Start_Az":179.52942049238899,"Parts":1,"Vertices":7,"Shape_Length":23380.912828236414}},{"type":"Feature","id":13,"geometry":{"type":"LineString","coordinates":[[22.264473516166689,-18.824768019587978],[22.259842275973927,-18.828023434850351],[22.250035302440178,-18.832522553547296],[22.229235969066455,-18.838806814833386],[22.232680767432562,-18.846844267602556],[22.235462224640063,-18.850956691494087],[22.239723841331049,-18.85485771007194],[22.241695989231072,-18.856809236925397],[22.200384632457627,-18.881160225469767],[22.196590153189106,-18.883401251230126],[22.187003371104531,-18.882304027528065],[22.166752163666054,-18.877293724382923],[22.143473803501678,-18.878345078741262],[22.087333995859151,-18.880041950830684],[22.045069327143253,-18.881354788001602],[22.002011881714395,-18.883040161825253],[21.982962189833035,-18.883645623421586],[21.975948982222782,-18.883556613262694],[21.914897470474333,-18.885819232367179],[21.855165943204309,-18.887929840748512],[21.816598746486072,-18.888921922449203],[21.789776475033666,-18.897350747538297],[21.735528193291028,-18.914262382286886],[21.722414272363128,-18.911542845116312],[21.657581583598805,-18.898747188625546],[21.611429537237584,-18.889646873955954],[21.599256290752702,-18.889938424527937],[21.548116795239061,-18.891796667467819],[21.49128545371105,-18.893655995523023],[21.455227076409862,-18.894692496987659],[21.422477131418002,-18.895966441620168],[21.408945169591131,-18.882141013721615],[21.393729162152283,-18.882803653525233],[21.33107490142671,-18.884248338299241],[21.272124470076058,-18.885666545544051],[21.232756710946251,-18.886160856103608],[21.220242597828477,-18.879437091600632],[21.172906455141788,-18.850704509088459],[21.098150236435622,-18.834321603937003],[21.088405772170937,-18.857314884509599],[21.074845231341644,-18.859997558544382],[21.025890859010552,-18.866308989148948],[20.999179407324874,-18.869066243785806]]},"properties":{"OBJECTID":13,"ID":0,"Plan_Len":142845.8083,"Sph_Len":142892.1029,"Start_X":633233.0135,"Start_Y":7918086.9539999999,"Mid_X":567440.83189999999,"Mid_Y":7910629.432,"Sph_Mid_X":567436.7831,"Sph_Mid_Y":7910630.2869999995,"End_X":499913.56540000002,"End_Y":7913659.977,"Prj_Az":268.09814733379801,"End_Az":267.68979508578201,"Start_Az":268.09855165371198,"Parts":1,"Vertices":43,"Shape_Length":151038.71270340087}},{"type":"Feature","id":14,"geometry":{"type":"LineString","coordinates":[[22.817161410816279,-20.024681839183437],[22.952284250426946,-20.076467495416171],[23.061342785580901,-20.022624130451959]]},"properties":{"OBJECTID":14,"ID":0,"Plan_Len":28129.427449999999,"Sph_Len":28126.33813,"Start_X":690079.49840000004,"Start_Y":7784755.0070000002,"Mid_X":703052.63820000004,"Mid_Y":7779322.3449999997,"Sph_Mid_X":703052.22809999995,"Sph_Mid_Y":7779322.534,"End_X":715632.26329999999,"End_Y":7784686.5920000002,"Prj_Az":90.153403634905004,"End_Az":89.530964659391003,"Start_Az":89.447354880838006,"Parts":1,"Vertices":3,"Shape_Length":29960.364151334754}},{"type":"Feature","id":15,"geometry":{"type":"LineString","coordinates":[[23.88398089547006,-20.010526255890859],[23.884235796923484,-20.058575245881965],[23.884044621057988,-20.08744287444787],[23.88410834664592,-20.124977164501818],[23.884172072233881,-20.163021258715087],[23.88398089547006,-20.198898686913537],[23.884172072233881,-20.234393762625366],[23.88398089547006,-20.272692758109184],[23.884172072233881,-20.310736852195703],[23.88410834664592,-20.348526043596696],[23.884426973687304,-20.38695249019888],[23.884490699275265,-20.40345738243381],[23.884299522511444,-20.436913243612405],[23.884235796923484,-20.472408319233192],[23.884172072233881,-20.507393591463842],[23.884247745415074,-20.628515757687239],[23.884148174352365,-20.680989683767951],[23.884048604187953,-20.738641301621698],[23.883949033125241,-20.796890345647373],[23.883650319937082,-20.854741106053606],[23.883749890999791,-20.912193582823559],[23.8838494620625,-20.970641769350028],[23.883761678692938,-21.000228712608177],[23.811194533959956,-21.000455750459508],[23.515610530067008,-21.000144319407827],[23.18735976338089,-20.999740799659211],[23.064295514682136,-21.002760301930781],[22.896431768928039,-21.000761228995888],[22.743499953675531,-20.999417792868432],[22.584341908002273,-21.000506850890073],[22.438563717818685,-21.000662429839],[22.281583787570412,-21.000506850890073],[22.127093132991909,-21.000040111393059],[21.973535956452675,-20.999573372113836],[21.823090374276035,-20.999417792868432],[21.662276499073862,-20.998673712218377],[21.511521563164539,-20.998072788934479],[21.355592979802296,-20.996975688792602],[21.198074417014734,-20.996484700713047],[21.045726660308812,-20.995473131258557],[20.999585102676829,-20.994732180186897],[20.999585811447609,-20.736235100996229],[20.999606955992753,-20.033734517689567]]},"properties":{"OBJECTID":15,"ID":0,"Plan_Len":515870.51059999998,"Sph_Len":515843.3051,"Start_X":801757.67150000005,"Start_Y":7784753.5410000002,"Mid_X":651535.5037,"Mid_Y":7677089.4850000003,"Sph_Mid_X":651433.04449999996,"Sph_Mid_Y":7677090.3380000005,"End_X":499958.89429999999,"End_Y":7784785.6229999997,"Prj_Az":270.00609079797101,"End_Az":269.01847487267997,"Start_Az":270.00622095373802,"Parts":1,"Vertices":43,"Shape_Length":552926.43868889019}},{"type":"Feature","id":16,"geometry":{"type":"LineString","coordinates":[[20.999950134889176,-20.358231300512223],[21.214216497679978,-20.34464175317331],[21.367017838925694,-20.335208398809996],[21.516843625777085,-20.325718183510279],[21.662624271056345,-20.316850265984517],[21.822718489714735,-20.306737702131688],[22.13823945239346,-20.287757150183168],[22.143840415850587,-20.287757151868327],[22.188803726986233,-20.240616526994902],[22.282464284770871,-20.233771051129594],[22.383437210714948,-20.227392309662626],[22.422955109769735,-20.275933176963285],[22.426689085707281,-20.277800134413436],[22.440069166674096,-20.270021152673753],[22.565450530715012,-20.262637894894738],[22.585800522292011,-20.159943198271296],[22.610173180491095,-20.034769246239833],[22.621294682136305,-19.980582412479166],[22.640163235028808,-19.940196869619708]]},"properties":{"OBJECTID":16,"ID":0,"Plan_Len":205715.01139999999,"Sph_Len":205765.41519999999,"Start_X":499994.79580000002,"Start_Y":7748876.0099999998,"Mid_X":602649.26130000001,"Mid_Y":7755328.9129999997,"Sph_Mid_X":602637.79429999995,"Sph_Mid_Y":7755328.2309999997,"End_X":671652.46239999996,"End_Y":7794298.4309999999,"Prj_Az":75.178627218749,"End_Az":75.180485006468999,"Start_Az":74.615449046096998,"Parts":1,"Vertices":19,"Shape_Length":219535.12487625095}},{"type":"Feature","id":17,"geometry":{"type":"LineString","coordinates":[[23.882576210640071,-19.629084227816648],[23.881712220881244,-19.24046616690449]]},"properties":{"OBJECTID":17,"ID":0,"Plan_Len":43050.579389999999,"Sph_Len":43019.07372,"Start_X":802331.95209999999,"Start_Y":7827007.0420000004,"Mid_X":802647.09510000004,"Mid_Y":7848530.0250000004,"Sph_Mid_X":802648.82700000005,"Sph_Mid_Y":7848529.9730000002,"End_X":802962.23809999996,"End_Y":7870053.0070000002,"Prj_Az":0.83887422272900003,"End_Az":359.879012337387,"Start_Az":359.87929981741502,"Parts":1,"Vertices":2,"Shape_Length":45874.873121980039}},{"type":"Feature","id":18,"geometry":{"type":"LineString","coordinates":[[22.023254106981025,-19.629628582902971],[22.097188730121612,-19.631114994348376],[22.095425239302497,-19.703304928898952],[22.022355277860566,-19.701173566056575],[22.023256811808352,-19.630055672606911]]},"properties":{"OBJECTID":18,"ID":0,"Plan_Len":31280.319899999999,"Sph_Len":31288.058959999998,"Start_X":607290.29099999997,"Start_Y":7829181.2719999999,"Mid_X":614808.9497,"Mid_Y":7821086.6270000003,"Sph_Mid_X":614808.94839999999,"Sph_Mid_Y":7821086.5429999996,"End_X":607290.29099999997,"End_Y":7829134.0049999999,"Prj_Az":180,"End_Az":179.656215810986,"Start_Az":179.65621490239801,"Parts":1,"Vertices":5,"Shape_Length":33314.278604562322}},{"type":"Feature","id":19,"geometry":{"type":"LineString","coordinates":[[21.896817070665989,-18.502644915360804],[21.875680442360995,-18.484375566134666],[21.866702076641968,-18.479504388317615],[21.860903665281985,-18.483802555670184],[21.843862387187006,-18.477898813943856],[21.826790496303769,-18.465372394978179],[21.820004898430319,-18.450450664964528],[21.816410962659088,-18.447689510360235],[21.798874767639767,-18.430463379276308],[21.783838318154849,-18.416001867546402],[21.761137186645993,-18.341977455804663],[21.690547018257632,-18.364460203207702],[21.681156469553642,-18.377096187378008],[21.653854521994017,-18.374842368420634],[21.581490352497802,-18.410534585785069],[21.569158057495191,-18.416445885850774],[21.54462480028625,-18.442363291909977],[21.557870552575388,-18.455140712853972],[21.579195688749525,-18.473659752643545],[21.614450366722213,-18.504840480090273],[21.634281028758711,-18.539804507824414],[21.640813119364037,-18.550034954034487],[21.646891656870636,-18.55855795320338],[21.67535387653604,-18.609186243975046]]},"properties":{"OBJECTID":19,"ID":0,"Plan_Len":74525.415919999999,"Sph_Len":74550.182769999999,"Start_X":594669.89749999996,"Start_Y":7953967.1849999996,"Mid_X":569079.84030000004,"Mid_Y":7968217.6189999999,"Sph_Mid_X":569079.22820000001,"Sph_Mid_Y":7968217.6739999996,"End_X":571246.54169999994,"End_Y":7942280.3229999999,"Prj_Az":243.48353004315501,"End_Az":243.19818608265101,"Start_Az":243.26866242145101,"Parts":1,"Vertices":24,"Shape_Length":78791.269892259341}},{"type":"Feature","id":20,"geometry":{"type":"LineString","coordinates":[[23.884133132961267,-20.293434385032796],[23.913183829087806,-20.292953042340073],[23.913647521471169,-20.317722360438161],[23.919300429111289,-20.320674367957455],[23.932697859241209,-20.323293264200892],[23.939604240994498,-20.324192640993729],[23.949435232784005,-20.32037142614718],[23.953739585926339,-20.320298722854933],[23.957951245507775,-20.315353462519433],[23.96240877218586,-20.312028630164722],[23.964083987358602,-20.309563231414497],[23.968498614990263,-20.304005089302514],[23.97281795292988,-20.304744037635697],[23.987536642247647,-20.308960938964567],[23.989688588850125,-20.308924150769784],[23.988496499315254,-20.291682722109847],[24.008381310000491,-20.273674158651001],[24.007457823922103,-20.248102184876078],[24.004269593384297,-20.182968407581782],[23.900923161254429,-20.189172986852455],[23.883730490982909,-20.190065316823443]]},"properties":{"OBJECTID":20,"ID":0,"Plan_Len":42347.788050000003,"Sph_Len":42314.645360000002,"Start_X":801229.69099999999,"Start_Y":7753415.6380000003,"Mid_X":814231.34730000002,"Mid_Y":7756891.5389999999,"Sph_Mid_X":814231.35750000004,"Sph_Mid_Y":7756891.3880000003,"End_X":801387.17000000004,"End_Y":7764866.6109999996,"Prj_Az":0.78790800518000004,"End_Az":359.789294320583,"Start_Az":359.78943362751301,"Parts":1,"Vertices":21,"Shape_Length":45198.603466299886}},{"type":"Feature","id":21,"geometry":{"type":"LineString","coordinates":[[23.883935515276853,-20.142740359198857],[24.0062902458181,-20.14252094817753],[24.006193066968958,-20.182326273058127],[24.004265700085842,-20.182765394324466]]},"properties":{"OBJECTID":21,"ID":0,"Plan_Len":17420.135190000001,"Sph_Len":17406.47178,"Start_X":801499.65500000003,"Start_Y":7770108.4110000003,"Mid_X":810208.63320000004,"Mid_Y":7769970.659,"Sph_Mid_X":810208.38509999996,"Sph_Mid_Y":7769970.665,"End_X":814007.98609999998,"End_Y":7765451.5329999998,"Prj_Az":110.420407407439,"End_Az":109.425533743915,"Start_Az":109.38405735400301,"Parts":1,"Vertices":4,"Shape_Length":18561.664283980597}},{"type":"Feature","id":22,"geometry":{"type":"LineString","coordinates":[[24.134006448961717,-20.184263947481099],[24.130941575078733,-19.966779262809656],[23.958881458171,-19.963387919957722],[23.883981386848507,-19.962638480967669]]},"properties":{"OBJECTID":22,"ID":0,"Plan_Len":49976.30401,"Sph_Len":49932.637840000003,"Start_X":827575.60950000002,"Start_Y":7765034.4589999998,"Mid_X":826821.0993,"Mid_Y":7789169.8360000001,"Sph_Mid_X":826819.79150000005,"Sph_Mid_Y":7789169.8890000004,"End_X":801849.06149999995,"End_Y":7790057.9759999998,"Prj_Az":314.20634299696502,"End_Az":313.129667636806,"Start_Az":313.21548264948302,"Parts":1,"Vertices":4,"Shape_Length":53274.87845951903}},{"type":"Feature","id":23,"geometry":{"type":"LineString","coordinates":[[24.036067626907215,-19.798270392212054],[24.037147824985254,-19.964841172408224]]},"properties":{"OBJECTID":23,"ID":0,"Plan_Len":18455.876680000001,"Sph_Len":18440.201069999999,"Start_X":818106.65800000005,"Start_Y":7807985.2719999999,"Mid_X":817996.80940000003,"Mid_Y":7798757.9869999997,"Sph_Mid_X":817997.14379999996,"Sph_Mid_Y":7798757.9790000003,"End_X":817886.9608,"End_Y":7789530.7029999997,"Prj_Az":180.682060393173,"End_Az":179.648692728973,"Start_Az":179.64832537826899,"Parts":1,"Vertices":2,"Shape_Length":19718.177154061592}},{"type":"Feature","id":24,"geometry":{"type":"LineString","coordinates":[[23.883864229467488,-21.000170036569703],[23.954381944236552,-21.08984437904504],[24.115834576402968,-21.29430320504623],[24.244197881859836,-21.455213954056461],[24.362020665691624,-21.604309600263942],[24.48625716642881,-21.760728365015542],[24.519282863670156,-21.801483799534466]]},"properties":{"OBJECTID":24,"ID":0,"Plan_Len":110618.4955,"Sph_Len":110511.798,"Start_X":799810.96880000003,"Start_Y":7675127.983,"Mid_X":831901.48369999998,"Mid_Y":7630080.1789999995,"Sph_Mid_X":831897.55110000004,"Sph_Mid_Y":7630086.3020000001,"End_X":863933.61239999998,"End_Y":7584991.0999999996,"Prj_Az":144.57226337948501,"End_Az":143.51750641429001,"Start_Az":143.28564060487699,"Parts":1,"Vertices":7,"Shape_Length":119091.55709377131}},{"type":"Feature","id":25,"geometry":{"type":"LineString","coordinates":[[25.128924564475533,-20.211448351379808],[25.12643042802177,-20.141507552496112],[25.132014349539656,-20.131347317127258],[25.140137011560086,-20.118875888424427],[25.118449296472676,-20.043653186159855],[25.106025971589091,-20.040667571406651],[25.059585205797248,-20.028743245148128],[25.043543023181456,-20.01969510114953],[24.999489452103713,-19.997361088378849],[24.999049815705355,-19.979971193602758],[24.999470988131375,-19.962357135515418],[24.999683123489074,-19.893469286861183],[24.999639460874686,-19.840042208221462],[25.038917730734205,-19.810702821936946],[25.066291826485848,-19.790020809618788],[25.1666372531528,-19.713921606489734],[25.18619127809928,-19.709576737548378],[25.214563930340983,-19.702873602705488],[25.315728090541029,-19.680000287115373],[25.342100983365821,-19.688572163426947],[25.366521610702748,-19.69677799042282],[25.404454416269033,-19.7091499408623],[25.455494711724132,-19.726506851081975],[25.476429120275551,-19.733350160682217],[25.497704935347315,-19.736908437800277],[25.547657343145556,-19.745874637869722],[25.645608912293937,-19.763198963377295],[25.701194804359258,-19.77238138945409],[25.738079245446247,-19.770178884288494],[25.750817379531252,-19.769840342807772],[25.780922478612478,-19.757786912776488],[25.825859559840143,-19.750646999139448],[25.842287832076806,-19.736703739527545],[25.914643929311907,-19.729616284659734],[25.926487244355894,-19.728472317211775],[25.969306411655623,-19.730354824163452],[26.039579534037486,-19.705690517838867],[26.050182508337741,-19.701918800645505],[26.056439403649048,-19.714084510002756],[26.066710516927145,-19.725440761705993],[26.079477723189719,-19.740201829357851],[26.090400845379143,-19.760402789232486],[26.096814092465632,-19.771518598377344],[26.109276726727739,-19.79375942165418],[26.118428934420567,-19.810010052919587],[26.124581655701604,-19.835732566886957],[26.140097914244411,-19.838413793670931],[26.194762079132655,-19.847428459633299],[26.328102521980757,-19.869203001346278],[26.369598935296001,-19.825206628629523],[26.405759751082297,-19.786927247633461],[26.441732110203446,-19.748997209317199]]},"properties":{"OBJECTID":25,"ID":0,"Plan_Len":225625.1202,"Sph_Len":225063.37450000001,"Start_X":931613.79989999998,"Start_Y":7759740.1090000002,"Mid_X":975324.10259999998,"Mid_Y":7810569.8959999997,"Sph_Mid_X":975265.48629999999,"Sph_Mid_Y":7810582.6459999997,"End_X":1070797.22,"End_Y":7807115.7350000003,"Prj_Az":71.202314727437994,"End_Az":69.789605752924004,"Start_Az":69.341003872887001,"Parts":1,"Vertices":52,"Shape_Length":239629.84046548506}},{"type":"Feature","id":26,"geometry":{"type":"LineString","coordinates":[[24.207708520733103,-21.409527489120968],[24.212064385070466,-21.409228980237696],[24.229847235907219,-21.403511853943048],[24.279672343446578,-21.383194052166033],[24.325922098662961,-21.377982873477798],[24.365982481334662,-21.373313573566335],[24.389418660223111,-21.39433905829253],[24.406157274339293,-21.403458376974012],[24.500931797873466,-21.42149482131099],[24.521069358547049,-21.428380717029601],[24.557166543966805,-21.440083993605128],[24.681377629567979,-21.449646140334508],[24.699455300294439,-21.447312662607814],[24.78662414944074,-21.435904676379064],[24.790285201940112,-21.426580753286036],[24.814527626880896,-21.414424930495969],[24.823131413991096,-21.409930567309107],[24.830811642259334,-21.405242063371439],[24.844995784575744,-21.394816705975042],[24.864293665698714,-21.378255489365461],[24.89630804138984,-21.348289380800328],[24.907604501614742,-21.341794918779556],[24.918462167162662,-21.370550959243872],[24.936070866106849,-21.385609683012511],[24.956282252127096,-21.386422769734313],[24.999902495674728,-21.387535417833099],[24.998282085819135,-21.344815372434724],[25.003514405836516,-21.334806679164469],[25.030289009984973,-21.29076354906179],[25.030671026644406,-21.28796117332611],[24.995134776237474,-21.254000555524591],[24.994091337220897,-21.232323402408692],[24.991808829475044,-21.173072990190605],[25.026657296462773,-21.157204965266548],[25.027707220417394,-21.136767750481379],[25.030864728572467,-21.092645195136505],[25.056818772912873,-21.053565498575203],[25.052111933200742,-21.040356592883036],[25.0687992633957,-20.997522736567117],[25.081577522529489,-20.962624479134444],[25.095724334455952,-20.944559193195992],[25.10067083570274,-20.933052954896674],[25.105985896845976,-20.918315008368435],[25.116115522771867,-20.878967953389534],[25.142369621485162,-20.777570254077581],[25.149868806884342,-20.751070332087071],[25.162299015557949,-20.746257594873342],[25.204259519210204,-20.729122346820247],[25.211787358172,-20.723889334901866],[25.272132273084303,-20.774815330330171],[25.263365645667626,-20.796086083444674],[25.247656343661863,-20.806143472703077],[25.237154208845485,-20.814567097687604],[25.23401174208151,-20.824741740254851],[25.236800495405735,-20.842718140742811],[25.272627291518248,-20.857078770820223],[25.292258713512979,-20.864320114275774],[25.310723774620875,-20.878677095831481],[25.347575815272219,-20.888482788223204],[25.34346635702066,-20.912430597437616],[25.340580897361171,-20.94250507029512],[25.27801004970128,-20.991109979080974],[25.253460401831664,-21.022217918556244],[25.252861049467366,-21.057463558894746],[25.251208708995012,-21.127966164740918],[25.251240360235744,-21.162556488478405],[25.273568455543121,-21.198687662636981],[25.273835614508599,-21.253814341392044],[25.273563071939616,-21.331476432077658],[25.273517686356492,-21.369392100306115],[25.237562962062697,-21.402957939820581],[25.179673755472916,-21.400117169246688],[25.144682210216622,-21.428271828704755],[25.108939925809413,-21.479212947877571],[25.082427663859864,-21.516173237123613],[25.082307523173785,-21.561079709811054],[25.081527674116057,-21.62329759847173],[25.059468337673724,-21.647902019347047],[25.000382946129712,-21.713689320610897],[24.928972509885789,-21.79340046601757],[24.869773880310323,-21.859265442438687],[24.748510739383207,-21.861427063023296],[24.57037679753088,-21.864312778649204]]},"properties":{"OBJECTID":26,"ID":0,"Plan_Len":369897.7672,"Sph_Len":369264.42050000001,"Start_X":832583.83539999998,"Start_Y":7629126.8820000002,"Mid_X":944761.73459999997,"Mid_Y":7697079.892,"Sph_Mid_X":944744.78590000002,"Sph_Mid_Y":7697095.9340000004,"End_X":869060.65300000005,"End_Y":7577905.4340000004,"Prj_Az":144.54382899375199,"End_Az":143.359338094234,"Start_Az":143.225612294868,"Parts":1,"Vertices":83,"Shape_Length":397378.99054734374}},{"type":"Feature","id":27,"geometry":{"type":"LineString","coordinates":[[25.008635876442764,-22.409155247621268],[25.039692904060843,-22.390366955487281],[25.061931107652704,-22.375300417263965],[25.103932316665432,-22.346206513476094],[25.141105293028438,-22.320639500870602],[25.200873840769606,-22.278901303448116],[25.225423182313712,-22.261559278761379],[25.284370612392998,-22.219778317081282],[25.301501742677655,-22.207736908540824],[25.35768304440148,-22.167695153550834],[25.37986441338191,-22.151621693518617],[25.391020263010336,-22.143344726238084],[25.395688004448026,-22.140035725502965],[25.448065929090411,-22.101959390257452],[25.486556733076913,-22.073682331242942],[25.527099963807117,-22.044335422568782],[25.575784361852591,-22.008817412511895],[25.602319322432731,-21.989273752726362],[25.667259464078057,-21.942240335836001],[25.735519095395549,-21.892568304251174],[25.803213619923987,-21.843460863484534],[25.878090105080393,-21.788979577223209],[25.891118675276537,-21.78007927597201],[25.917913095361865,-21.748857644811729],[25.928744373796651,-21.741377883815737],[25.961497538350475,-21.717617398517437],[25.992563883294721,-21.695158090990681],[26.014600941518001,-21.679230872583393],[26.015248550481076,-21.678275932657634],[26.047713215691509,-21.655094839543914],[26.06536296854248,-21.641771922778663],[26.07692966176776,-21.596772773334749],[26.086661371752058,-21.557155651978206],[26.092040831321384,-21.536810211617343],[26.105408912592665,-21.487503106863354],[26.119171548309737,-21.434840543918899],[26.135785946083416,-21.374160644855902],[26.147806727803324,-21.331193817556041],[26.192063154641918,-21.332131497581965],[26.217861212821429,-21.316072694840884],[26.232619902322181,-21.306671862676492],[26.235572782340398,-21.304527849595246],[26.236230240432217,-21.301054936099487],[26.239916682914817,-21.280575761463766],[26.243514437424341,-21.277235904771214],[26.249165900573498,-21.272346961349385],[26.251346385754193,-21.271038211272742],[26.25533207682086,-21.266740933247142],[26.256871894320721,-21.265668995287918],[26.25867881958213,-21.262320884875745],[26.263455650631307,-21.253112623583728],[26.265386555079996,-21.250484129446928],[26.266249775880908,-21.231070554565264],[26.266413171346262,-21.22387964877786],[26.266306080486284,-21.21968407043622],[26.266831595825821,-21.216809704488327],[26.267473673861669,-21.216213189275411],[26.267739963257963,-21.214056855594055],[26.266630410931437,-21.205781664015458],[26.265386641318283,-21.19882434381946],[26.266705536140332,-21.190559683048519],[26.267621994698231,-21.186128805385362],[26.268159142322386,-21.180857251462474],[26.268165039762199,-21.179658667055662],[26.26867856618594,-21.179181445791961],[26.268304624482617,-21.177262051263284],[26.266141060866911,-21.175454761008169],[26.265936334813667,-21.165145820954667],[26.266494106858417,-21.155679204772298],[26.26720018267175,-21.142018065282318],[26.266358956222234,-21.131226883962107],[26.267171399751714,-21.121881189346301],[26.271141379284046,-21.119860660272188],[26.303792081996569,-21.103576769404221],[26.303560661606348,-21.098421720283707],[26.301316008866578,-21.086785793472998],[26.299575755667242,-21.076590268143942],[26.297598331961531,-21.062558116259094],[26.293873827860381,-21.04000837796055],[26.290512321287416,-21.021894994810381],[26.285680295950542,-20.991069794466117],[26.284204681044034,-20.979316927113967],[26.282971916691423,-20.970202071416164],[26.282898022174479,-20.958934521010175],[26.282294873529782,-20.951620256640485],[26.279261217001231,-20.945614244613907],[26.278911729236562,-20.938660628034594],[26.278438700662466,-20.930867431143604],[26.276925566719818,-20.927145224578371],[26.276059585396027,-20.921507915005876],[26.27632508696983,-20.919351475621749],[26.277889226356002,-20.912405936771279],[26.280228285743934,-20.903425934643998],[26.281035883760769,-20.894559315177265],[26.282122379927259,-20.880659506519283],[26.281915152065935,-20.870589938086933],[26.280541420485665,-20.864471024089681],[26.278403250446406,-20.858229011852448],[26.272847148854567,-20.846818269414484],[26.279023541641685,-20.835097525339854],[26.281331047705265,-20.83247016734239],[26.288625424406167,-20.826747025340243],[26.294254650658772,-20.822574972876616],[26.299488369353032,-20.821158041047692],[26.301028733028598,-20.81888686296961],[26.30257511721317,-20.815297160156671],[26.303749440766683,-20.8094284611477],[26.311452576973004,-20.797472855859791],[26.326735669698962,-20.771761973159236],[26.333024795664329,-20.761717603303072],[26.339317761927553,-20.750594171290786],[26.351126707428762,-20.730621090407592],[26.35908336078468,-20.71710571866732],[26.368711044062433,-20.699640366881127],[26.380770198218059,-20.678826786561618],[26.388340789800846,-20.664948867794532],[26.396419846699068,-20.650952473573255],[26.40206066750704,-20.641382445130276],[26.405784266106419,-20.633483815795643],[26.41080242237015,-20.619955562326343],[26.425839128773241,-20.616649773994276],[26.432592891251318,-20.61511374675867],[26.441265041052961,-20.611186227558544],[26.463835715623006,-20.601068560614074],[26.471248952012427,-20.592580434270495],[26.476876787672957,-20.58480581582381],[26.481870841239335,-20.576070117610641],[26.48801543905525,-20.565659436212162],[26.497360175476402,-20.549384020274776],[26.513870718121741,-20.51994211904098],[26.530500978346694,-20.490858386650839],[26.545461119541471,-20.465244888832885],[26.555050663047226,-20.448007606111226],[26.561313613901866,-20.437114804300222],[26.562720330721024,-20.434361196184991],[26.572698376722553,-20.413167874171897],[26.584725510429838,-20.385385549951618],[26.588690780993449,-20.376284289815075],[26.594444308928555,-20.363710644492723],[26.611063189295479,-20.326226713152096],[26.618858215968864,-20.308741656189909],[26.63163413588968,-20.279638496626813],[26.642871884024217,-20.254487140314566],[26.654489624015493,-20.228136894482784],[26.666357870003562,-20.201546467156739],[26.680263935230503,-20.169803950021826],[26.701749099085973,-20.154496889434647],[26.715858153922696,-20.144570063016619],[26.745724224781512,-20.122677323957543],[26.771897111301548,-20.104011484810172],[26.804922332435797,-20.080194408248431],[26.840222810114934,-20.054814607209771],[26.851268053775673,-20.046552275799197],[26.875004478378127,-20.029547136386221],[26.883507919179522,-20.023199083487338],[26.900639362077868,-20.01086145217733],[26.90749124843277,-20.005830021010478],[26.914215745595541,-20.00103802665349],[26.921575719973426,-19.992649519554238]]},"properties":{"OBJECTID":27,"ID":0,"Plan_Len":359886.74810000003,"Sph_Len":358784.78869999998,"Start_X":912817.86320000002,"Start_Y":7516372.7510000002,"Mid_X":1039831.985,"Mid_Y":7632739.4919999996,"Sph_Mid_X":1039745.357,"Sph_Mid_Y":7632685.9800000004,"End_X":1120308.507,"End_Y":7778345.1560000004,"Prj_Az":38.380366113038001,"End_Az":36.939236814664,"Start_Az":36.247232031636003,"Parts":1,"Vertices":159,"Shape_Length":386215.97270885989}},{"type":"Feature","id":28,"geometry":{"type":"LineString","coordinates":[[26.652754330414869,-20.231774473034513],[26.607787753903175,-20.215662471333165],[26.606902119237581,-20.215799772125035],[26.606014729263961,-20.216633469143808],[26.58304931968668,-20.252375480714569],[26.579046971159705,-20.258912073971352],[26.520405224296859,-20.274917824927936],[26.453124592247356,-20.267478318434399],[26.416389646094999,-20.263181538773146],[26.362632590099196,-20.271629442606717],[26.339972276240186,-20.290069172709352],[26.307530344694634,-20.315848892688027],[26.277725002643962,-20.312107257267275],[26.26183940626369,-20.330842792233213],[26.283612272656864,-20.380096688746892],[26.271464653310414,-20.387845625617086],[26.245976635176469,-20.404867672216845],[26.20348523886938,-20.423480116759585],[26.186527180702306,-20.445545540694035],[26.178624415483672,-20.459017483126935],[26.188134815616245,-20.47702780620892],[26.18293581860436,-20.482017103530868],[26.178744343269042,-20.492024652684002],[26.149674645079262,-20.563746414858013],[26.129124570840688,-20.615172429907748],[26.12148184903219,-20.632402544509187],[26.11482897275037,-20.631672255559447],[26.091136217050515,-20.635587845010409]]},"properties":{"OBJECTID":28,"ID":0,"Plan_Len":91752.674769999998,"Sph_Len":91438.467829999994,"Start_X":1091172.074,"Start_Y":7752762.3820000002,"Mid_X":1050740.2180000001,"Mid_Y":7744163.551,"Sph_Mid_X":1050734.2660000001,"Sph_Mid_Y":7744156.5650000004,"End_X":1030918.052,"End_Y":7709853.7860000003,"Prj_Az":234.54425506743101,"End_Az":232.566419835044,"Start_Az":232.76249622511401,"Parts":1,"Vertices":28,"Shape_Length":97747.021509421233}},{"type":"Feature","id":29,"geometry":{"type":"LineString","coordinates":[[17.996871839994562,-17.890190373462939],[17.995622183721363,-17.760226156032815],[17.871906246809878,-17.760226156032815]]},"properties":{"OBJECTID":29,"ID":0,"Plan_Len":27528.758229999999,"Sph_Len":27504.569210000001,"Start_X":181765.76379999999,"Start_Y":8019399.6189999999,"Mid_X":181417.95879999999,"Mid_Y":8033159.6030000001,"Sph_Mid_X":181417.93350000001,"Sph_Mid_Y":8033159.2479999997,"End_X":168272.08790000001,"End_Y":8033577.602,"Prj_Az":316.41660877717999,"End_Az":317.33669165503699,"Start_Az":317.37494543379501,"Parts":1,"Vertices":3,"Shape_Length":28969.725483997045}},{"type":"Feature","id":30,"geometry":{"type":"LineString","coordinates":[[20.999795045246955,-20.994335708344764],[21.001044700621858,-21.57292640519395],[21.002294356895057,-21.999059077989045],[20.363720175559543,-21.999059077989045],[19.998820643496146,-21.999059077989045],[19.997570987222943,-22.43144003063243],[20.000070298871048,-23.020027974793813]]},"properties":{"OBJECTID":30,"ID":0,"Plan_Len":327816.4852,"Sph_Len":327928.29029999999,"Start_X":499978.6985,"Start_Y":7678479.2439999999,"Mid_X":447531.06060000003,"Mid_Y":7567167.9539999999,"Sph_Mid_X":447540.14880000002,"Sph_Mid_Y":7567167.9740000004,"End_X":397537.1667,"End_Y":7453913.4800000004,"Prj_Az":204.521337636721,"End_Az":204.526845812094,"Start_Az":204.901532461805,"Parts":1,"Vertices":7,"Shape_Length":354944.91073091485}},{"type":"Feature","id":31,"geometry":{"type":"LineString","coordinates":[[20.999476180152005,-20.000500383697403],[20.975206125728061,-20.000906122957709],[20.870079719591931,-20.000662670748017],[20.769447355751868,-20.000461540702776],[20.710197009267169,-20.000275771194406],[20.625031820921102,-20.000017255173695],[20.523564011290382,-20.000464962837249],[20.41332094143311,-20.000430612336032],[20.313737190905634,-20.000566823218364],[20.214992042848749,-20.00045322425726],[20.152191730431017,-20.000657757872407],[20.059088915945054,-20.001076792689638],[19.948227111672875,-20.001144810498086],[19.840712064535051,-20.001165358409104],[19.75012553536445,-20.001240855203072],[19.65849700987161,-20.001262117238468],[19.566032221121251,-20.001624218850036],[19.376728475210886,-20.001768418397322],[19.289496369397238,-20.002033866908906],[19.158794550728143,-20.00047890883641],[19.003736565131941,-19.847667098516752],[19.005343575716729,-19.720427567241092],[19.003714595035028,-19.700464357154356],[19.001666423610811,-19.680693936107431],[19.002247346138759,-19.667469472581548],[19.003233933475961,-19.629861048552627],[19.003635026758722,-19.614264763159621],[19.008006279236898,-19.572348968649418],[19.026259581381208,-19.561885669115554],[19.072108877525416,-19.534239665419214],[19.085849753351365,-19.525992572703458],[19.128459128099649,-19.51577431466319],[19.21481510522009,-19.494823919904611],[19.209300288402051,-19.456553415084898],[19.203214950648789,-19.413537145394088],[19.203945627724465,-19.403866887606348],[19.207969274408526,-19.369047783991121],[19.209473825846967,-19.355138769402185],[19.206312206102812,-19.320742429698154],[19.203488008850744,-19.28407805713233],[19.203471685563724,-19.266500196215631],[19.2043539820897,-19.214071816115627],[19.203944538966351,-19.165580582193964],[19.203095631921155,-19.138415391137819],[19.201919945623381,-19.083793676689975],[19.202223021928912,-19.065329819902573],[19.203311158419066,-19.041442132888321],[19.20416887614056,-19.009948089156786],[19.204247306251379,-18.983285310081207],[19.204321931098658,-18.947240765536073],[19.203958798823173,-18.893811023374468],[19.203740836094202,-18.846110228153218],[19.203848464146709,-18.806707834317741],[19.172444987764539,-18.805119047922233],[19.118143095464088,-18.802011695282943],[19.032036190629235,-18.796877270604856],[18.95650272079315,-18.792609474640141],[18.957272363192622,-18.780373582127027],[18.98731476256194,-18.747323545625687],[19.033834042007928,-18.695382714287103],[19.0822111362762,-18.641471681713309],[19.135997736963379,-18.582463803996433],[19.126368858926284,-18.582269576469155],[19.03217970997061,-18.578149723509433],[18.959120393564785,-18.574468280906093]]},"properties":{"OBJECTID":31,"ID":0,"Plan_Len":421572.89809999999,"Sph_Len":421599.72810000001,"Start_X":499945.2059,"Start_Y":7788463.3200000003,"Mid_X":294616.72240000003,"Mid_Y":7800401.7060000002,"Sph_Mid_X":294639.40769999998,"Sph_Mid_Y":7800378.3569999998,"End_X":284620.97269999998,"End_Y":7945033.3739999998,"Prj_Az":306.02225847316902,"End_Az":306.01447095693999,"Start_Az":306.68853348669398,"Parts":1,"Vertices":65,"Shape_Length":448176.50318576989}},{"type":"Feature","id":32,"geometry":{"type":"LineString","coordinates":[[26.232787294392224,-21.306676274889472],[26.253285534042277,-21.310489841124653],[26.314571229398791,-21.320881126771585],[26.412473058829889,-21.336964358373272],[26.461433283685039,-21.344778019766746],[26.483244401241354,-21.35518388265637],[26.554204499456933,-21.389914197093372],[26.621892312671889,-21.422333254330006],[26.686300223172648,-21.453478602169508],[26.711843964701945,-21.46556473437732]]},"properties":{"OBJECTID":32,"ID":0,"Plan_Len":53491.676330000002,"Sph_Len":53299.808290000001,"Start_X":1043278.377,"Start_Y":7634879.1739999996,"Mid_X":1069170.273,"Mid_Y":7628593.0140000004,"Sph_Mid_X":1069166.2849999999,"Sph_Mid_Y":7628595.2810000004,"End_X":1092488.307,"End_Y":7615493.5120000001,"Prj_Az":111.501365711478,"End_Az":109.587627151964,"Start_Az":109.41293749092701,"Parts":1,"Vertices":10,"Shape_Length":57252.437740220485}},{"type":"Feature","id":33,"geometry":{"type":"LineString","coordinates":[[26.456137050331836,-22.447860920382681],[26.41153455381826,-22.409751093521983],[26.356403322474453,-22.362843977065385],[26.3176295455802,-22.329806723920498],[26.243190431271039,-22.267055165772035],[26.229431874803655,-22.255395701921877],[26.17255446587119,-22.206990077303903],[26.094008390626936,-22.140180799141596],[26.035875695679426,-22.089498703342493],[25.961363300402613,-22.024558068734432],[25.935129641955303,-22.001836111678141],[25.863070962537723,-21.9395690619371],[25.869137317990749,-21.904351311577265],[25.880002306604876,-21.842482551968747],[25.89034654993365,-21.780608800620286]]},"properties":{"OBJECTID":33,"ID":0,"Plan_Len":101249.40949999999,"Sph_Len":100942.329,"Start_X":1062007.3570000001,"Start_Y":7507360.6840000004,"Mid_X":1025839.361,"Mid_Y":7542782.6969999997,"Sph_Mid_X":1025831.5379999999,"Sph_Mid_Y":7542790.3470000001,"End_X":1006006.692,"End_Y":7583430.0760000004,"Prj_Az":323.64029163873499,"End_Az":321.580629647362,"Start_Az":321.79362911407202,"Parts":1,"Vertices":15,"Shape_Length":109269.79407097949}}]}